[{"OBJECT_NAME":"STARLINK-5450","OBJECT_ID":"2022-175W","EPOCH":"2026-03-09T04:37:59.635776","MEAN_MOTION":15.08844145,"ECCENTRICITY":0.00014663,"INCLINATION":53.2189,"RA_OF_ASC_NODE":31.4144,"ARG_OF_PERICENTER":94.435,"MEAN_ANOMALY":265.6809,"EPHEMERIS_TYPE":0,"CLASSIFICATION_TYPE":"U","NORAD_CAT_ID":54778,"ELEMENT_SET_NO":999,"REV_AT_EPOCH":18005,"BSTAR":3.118046e-5,"MEAN_MOTION_DOT":2.08e-6,"MEAN_MOTION_DDOT":0},{"OBJECT_NAME":"DELFI-N3XT","OBJECT_ID":"2013-066N","EPOCH":"2026-03-09T17:56:16.820160","MEAN_MOTION":14.93675177,"ECCENTRICITY":0.00763289,"INCLINATION":97.8341,"RA_OF_ASC_NODE":349.2574,"ARG_OF_PERICENTER":176.1438,"MEAN_ANOMALY":184.0386,"EPHEMERIS_TYPE":0,"CLASSIFICATION_TYPE":"U","NORAD_CAT_ID":39428,"ELEMENT_SET_NO":999,"REV_AT_EPOCH":65977,"BSTAR":0.00065912071,"MEAN_MOTION_DOT":7.321e-5,"MEAN_MOTION_DDOT":0}]
